STARLINK-35887          
1 66959U 25288A   25365.16668980 -.01066926  00000+0 -27118-1 0  9996
2 66959  43.0004  56.1376 0001018 271.1679  27.1708 15.41442532  4795
STARLINK-35879          
1 66960U 25288B   25365.16668980 -.00142393  00000+0 -24607-2 0  9991
2 66960  43.0008  56.0570 0001397 261.1910  70.0435 15.50635650  4792
STARLINK-35761          
1 66961U 25288C   25365.16668980 -.00243720  00000+0 -42654-2 0  9990
2 66961  43.0007  56.0524 0001381 258.8700  74.2735 15.50668568  4797
STARLINK-35874          
1 66962U 25288D   25365.16668980 -.00123718  00000+0 -21339-2 0  9992
2 66962  43.0008  56.0481 0001535 262.9498  72.1520 15.50612391  4794
STARLINK-36133          
1 66963U 25288E   25365.16668980 -.00054672  00000+0 -93259-3 0  9996
2 66963  43.0007  56.0432 0001502 262.3589  74.6797 15.50579509  4795
STARLINK-36104          
1 66964U 25288F   25365.16668980 -.00117151  00000+0 -20191-2 0  9993
2 66964  43.0008  56.0383 0001483 258.1992  80.7358 15.50606673  4795
STARLINK-36067          
1 66965U 25288G   25365.16668980 -.02037760  00000+0 -44869-1 0  9990
2 66965  43.0005  56.0491 0001217 258.8575  75.6758 15.46602901  4794
STARLINK-36139          
1 66966U 25288H   25365.16668980 -.00153047  00000+0 -26485-2 0  9991
2 66966  43.0007  56.0291 0001235 256.5338  86.2061 15.50640357  4794
STARLINK-36136          
1 66967U 25288J   25365.16668980 -.00142227  00000+0 -24589-2 0  9993
2 66967  43.0007  56.0240 0001390 260.4511  84.2378 15.50623024  4799
STARLINK-36152          
1 66968U 25288K   25365.16668980 -.00142400  00000+0 -24622-2 0  9995
2 66968  43.0007  56.0189 0001518 259.4795  87.1308 15.50619727  4796
STARLINK-36149          
1 66969U 25288L   25365.16668980 -.00550615  00000+0 -14009-1 0  9994
2 66969  43.0008  56.0737 0001359 279.5466  43.9474 15.41001129  4793
STARLINK-35703          
1 66970U 25288M   25365.16668980 -.00141946  00000+0 -24529-2 0  9998
2 66970  43.0008  55.9755 0001327 258.2699 105.5556 15.50634939  4797
