CCSDS_OMM_VERS = 2.0
CREATION_DATE  = 
ORIGINATOR     = 

OBJECT_NAME    = STARLINK-35887
OBJECT_ID      = 2025-288A
CENTER_NAME    = EARTH
REF_FRAME      = TEME
TIME_SYSTEM    = UTC
MEAN_ELEMENT_THEORY = SGP/SGP4

EPOCH          = 2025-12-31T04:00:01.998720
MEAN_MOTION    = 15.41442532
ECCENTRICITY   = .0001018
INCLINATION    = 43.0004
RA_OF_ASC_NODE = 56.1376
ARG_OF_PERICENTER = 271.1679
MEAN_ANOMALY   = 27.1708

EPHEMERIS_TYPE = 0
CLASSIFICATION_TYPE = U
NORAD_CAT_ID   = 66959
ELEMENT_SET_NO = 999
REV_AT_EPOCH   = 479
BSTAR          = -.27118E-1
MEAN_MOTION_DOT = -.1066926E-1
MEAN_MOTION_DDOT = 0

CCSDS_OMM_VERS = 2.0
CREATION_DATE  = 
ORIGINATOR     = 

OBJECT_NAME    = STARLINK-35879
OBJECT_ID      = 2025-288B
CENTER_NAME    = EARTH
REF_FRAME      = TEME
TIME_SYSTEM    = UTC
MEAN_ELEMENT_THEORY = SGP/SGP4

EPOCH          = 2025-12-31T04:00:01.998720
MEAN_MOTION    = 15.50635650
ECCENTRICITY   = .0001397
INCLINATION    = 43.0008
RA_OF_ASC_NODE = 56.0570
ARG_OF_PERICENTER = 261.1910
MEAN_ANOMALY   = 70.0435

EPHEMERIS_TYPE = 0
CLASSIFICATION_TYPE = U
NORAD_CAT_ID   = 66960
ELEMENT_SET_NO = 999
REV_AT_EPOCH   = 479
BSTAR          = -.24607E-2
MEAN_MOTION_DOT = -.142393E-2
MEAN_MOTION_DDOT = 0

CCSDS_OMM_VERS = 2.0
CREATION_DATE  = 
ORIGINATOR     = 

OBJECT_NAME    = STARLINK-35761
OBJECT_ID      = 2025-288C
CENTER_NAME    = EARTH
REF_FRAME      = TEME
TIME_SYSTEM    = UTC
MEAN_ELEMENT_THEORY = SGP/SGP4

EPOCH          = 2025-12-31T04:00:01.998720
MEAN_MOTION    = 15.50668568
ECCENTRICITY   = .0001381
INCLINATION    = 43.0007
RA_OF_ASC_NODE = 56.0524
ARG_OF_PERICENTER = 258.8700
MEAN_ANOMALY   = 74.2735

EPHEMERIS_TYPE = 0
CLASSIFICATION_TYPE = U
NORAD_CAT_ID   = 66961
ELEMENT_SET_NO = 999
REV_AT_EPOCH   = 479
BSTAR          = -.42654E-2
MEAN_MOTION_DOT = -.24372E-2
MEAN_MOTION_DDOT = 0

CCSDS_OMM_VERS = 2.0
CREATION_DATE  = 
ORIGINATOR     = 

OBJECT_NAME    = STARLINK-35874
OBJECT_ID      = 2025-288D
CENTER_NAME    = EARTH
REF_FRAME      = TEME
TIME_SYSTEM    = UTC
MEAN_ELEMENT_THEORY = SGP/SGP4

EPOCH          = 2025-12-31T04:00:01.998720
MEAN_MOTION    = 15.50612391
ECCENTRICITY   = .0001535
INCLINATION    = 43.0008
RA_OF_ASC_NODE = 56.0481
ARG_OF_PERICENTER = 262.9498
MEAN_ANOMALY   = 72.1520

EPHEMERIS_TYPE = 0
CLASSIFICATION_TYPE = U
NORAD_CAT_ID   = 66962
ELEMENT_SET_NO = 999
REV_AT_EPOCH   = 479
BSTAR          = -.21339E-2
MEAN_MOTION_DOT = -.123718E-2
MEAN_MOTION_DDOT = 0

CCSDS_OMM_VERS = 2.0
CREATION_DATE  = 
ORIGINATOR     = 

OBJECT_NAME    = STARLINK-36133
OBJECT_ID      = 2025-288E
CENTER_NAME    = EARTH
REF_FRAME      = TEME
TIME_SYSTEM    = UTC
MEAN_ELEMENT_THEORY = SGP/SGP4

EPOCH          = 2025-12-31T04:00:01.998720
MEAN_MOTION    = 15.50579509
ECCENTRICITY   = .0001502
INCLINATION    = 43.0007
RA_OF_ASC_NODE = 56.0432
ARG_OF_PERICENTER = 262.3589
MEAN_ANOMALY   = 74.6797

EPHEMERIS_TYPE = 0
CLASSIFICATION_TYPE = U
NORAD_CAT_ID   = 66963
ELEMENT_SET_NO = 999
REV_AT_EPOCH   = 479
BSTAR          = -.93259E-3
MEAN_MOTION_DOT = -.54672E-3
MEAN_MOTION_DDOT = 0

CCSDS_OMM_VERS = 2.0
CREATION_DATE  = 
ORIGINATOR     = 

OBJECT_NAME    = STARLINK-36104
OBJECT_ID      = 2025-288F
CENTER_NAME    = EARTH
REF_FRAME      = TEME
TIME_SYSTEM    = UTC
MEAN_ELEMENT_THEORY = SGP/SGP4

EPOCH          = 2025-12-31T04:00:01.998720
MEAN_MOTION    = 15.50606673
ECCENTRICITY   = .0001483
INCLINATION    = 43.0008
RA_OF_ASC_NODE = 56.0383
ARG_OF_PERICENTER = 258.1992
MEAN_ANOMALY   = 80.7358

EPHEMERIS_TYPE = 0
CLASSIFICATION_TYPE = U
NORAD_CAT_ID   = 66964
ELEMENT_SET_NO = 999
REV_AT_EPOCH   = 479
BSTAR          = -.20191E-2
MEAN_MOTION_DOT = -.117151E-2
MEAN_MOTION_DDOT = 0

CCSDS_OMM_VERS = 2.0
CREATION_DATE  = 
ORIGINATOR     = 

OBJECT_NAME    = STARLINK-36067
OBJECT_ID      = 2025-288G
CENTER_NAME    = EARTH
REF_FRAME      = TEME
TIME_SYSTEM    = UTC
MEAN_ELEMENT_THEORY = SGP/SGP4

EPOCH          = 2025-12-31T04:00:01.998720
MEAN_MOTION    = 15.46602901
ECCENTRICITY   = .0001217
INCLINATION    = 43.0005
RA_OF_ASC_NODE = 56.0491
ARG_OF_PERICENTER = 258.8575
MEAN_ANOMALY   = 75.6758

EPHEMERIS_TYPE = 0
CLASSIFICATION_TYPE = U
NORAD_CAT_ID   = 66965
ELEMENT_SET_NO = 999
REV_AT_EPOCH   = 479
BSTAR          = -.44869E-1
MEAN_MOTION_DOT = -.203776E-1
MEAN_MOTION_DDOT = 0

CCSDS_OMM_VERS = 2.0
CREATION_DATE  = 
ORIGINATOR     = 

OBJECT_NAME    = STARLINK-36139
OBJECT_ID      = 2025-288H
CENTER_NAME    = EARTH
REF_FRAME      = TEME
TIME_SYSTEM    = UTC
MEAN_ELEMENT_THEORY = SGP/SGP4

EPOCH          = 2025-12-31T04:00:01.998720
MEAN_MOTION    = 15.50640357
ECCENTRICITY   = .0001235
INCLINATION    = 43.0007
RA_OF_ASC_NODE = 56.0291
ARG_OF_PERICENTER = 256.5338
MEAN_ANOMALY   = 86.2061

EPHEMERIS_TYPE = 0
CLASSIFICATION_TYPE = U
NORAD_CAT_ID   = 66966
ELEMENT_SET_NO = 999
REV_AT_EPOCH   = 479
BSTAR          = -.26485E-2
MEAN_MOTION_DOT = -.153047E-2
MEAN_MOTION_DDOT = 0

CCSDS_OMM_VERS = 2.0
CREATION_DATE  = 
ORIGINATOR     = 

OBJECT_NAME    = STARLINK-36136
OBJECT_ID      = 2025-288J
CENTER_NAME    = EARTH
REF_FRAME      = TEME
TIME_SYSTEM    = UTC
MEAN_ELEMENT_THEORY = SGP/SGP4

EPOCH          = 2025-12-31T04:00:01.998720
MEAN_MOTION    = 15.50623024
ECCENTRICITY   = .000139
INCLINATION    = 43.0007
RA_OF_ASC_NODE = 56.0240
ARG_OF_PERICENTER = 260.4511
MEAN_ANOMALY   = 84.2378

EPHEMERIS_TYPE = 0
CLASSIFICATION_TYPE = U
NORAD_CAT_ID   = 66967
ELEMENT_SET_NO = 999
REV_AT_EPOCH   = 479
BSTAR          = -.24589E-2
MEAN_MOTION_DOT = -.142227E-2
MEAN_MOTION_DDOT = 0

CCSDS_OMM_VERS = 2.0
CREATION_DATE  = 
ORIGINATOR     = 

OBJECT_NAME    = STARLINK-36152
OBJECT_ID      = 2025-288K
CENTER_NAME    = EARTH
REF_FRAME      = TEME
TIME_SYSTEM    = UTC
MEAN_ELEMENT_THEORY = SGP/SGP4

EPOCH          = 2025-12-31T04:00:01.998720
MEAN_MOTION    = 15.50619727
ECCENTRICITY   = .0001518
INCLINATION    = 43.0007
RA_OF_ASC_NODE = 56.0189
ARG_OF_PERICENTER = 259.4795
MEAN_ANOMALY   = 87.1308

EPHEMERIS_TYPE = 0
CLASSIFICATION_TYPE = U
NORAD_CAT_ID   = 66968
ELEMENT_SET_NO = 999
REV_AT_EPOCH   = 479
BSTAR          = -.24622E-2
MEAN_MOTION_DOT = -.1424E-2
MEAN_MOTION_DDOT = 0

CCSDS_OMM_VERS = 2.0
CREATION_DATE  = 
ORIGINATOR     = 

OBJECT_NAME    = STARLINK-36149
OBJECT_ID      = 2025-288L
CENTER_NAME    = EARTH
REF_FRAME      = TEME
TIME_SYSTEM    = UTC
MEAN_ELEMENT_THEORY = SGP/SGP4

EPOCH          = 2025-12-31T04:00:01.998720
MEAN_MOTION    = 15.41001129
ECCENTRICITY   = .0001359
INCLINATION    = 43.0008
RA_OF_ASC_NODE = 56.0737
ARG_OF_PERICENTER = 279.5466
MEAN_ANOMALY   = 43.9474

EPHEMERIS_TYPE = 0
CLASSIFICATION_TYPE = U
NORAD_CAT_ID   = 66969
ELEMENT_SET_NO = 999
REV_AT_EPOCH   = 479
BSTAR          = -.14009E-1
MEAN_MOTION_DOT = -.550615E-2
MEAN_MOTION_DDOT = 0

CCSDS_OMM_VERS = 2.0
CREATION_DATE  = 
ORIGINATOR     = 

OBJECT_NAME    = STARLINK-35703
OBJECT_ID      = 2025-288M
CENTER_NAME    = EARTH
REF_FRAME      = TEME
TIME_SYSTEM    = UTC
MEAN_ELEMENT_THEORY = SGP/SGP4

EPOCH          = 2025-12-31T04:00:01.998720
MEAN_MOTION    = 15.50634939
ECCENTRICITY   = .0001327
INCLINATION    = 43.0008
RA_OF_ASC_NODE = 55.9755
ARG_OF_PERICENTER = 258.2699
MEAN_ANOMALY   = 105.5556

EPHEMERIS_TYPE = 0
CLASSIFICATION_TYPE = U
NORAD_CAT_ID   = 66970
ELEMENT_SET_NO = 999
REV_AT_EPOCH   = 479
BSTAR          = -.24529E-2
MEAN_MOTION_DOT = -.141946E-2
MEAN_MOTION_DDOT = 0

